OPS 6582 (TRANSIT 5B-5) 
1 00965U 64083D   21355.60606105  .00000047  00000+0  52348-4 0  9997
2 00965  90.0214 194.9213 0041915  31.2598  28.5811 13.56765654821403
OSCAR 7 (AO-7)          
1 07530U 74089B   21355.55694909 -.00000048  00000+0 -16028-4 0  9990
2 07530 101.8819 330.0357 0012422  23.7604  97.1618 12.53651878155176
UOSAT 2 (UO-11)         
1 14781U 84021B   21355.52071356  .00000505  00000+0  67643-4 0  9990
2 14781  97.6036 346.2649 0008375 176.5252 183.6022 14.83388378 13660
NOAA 9                  
1 15427U 84123A   21355.55945772  .00000037  00000+0  42091-4 0  9996
2 15427  99.0214 320.3962 0014194 312.6909 157.2419 14.16157436911660
LUSAT (LO-19)           
1 20442U 90005G   21355.47449773  .00000061  00000+0  38863-4 0  9995
2 20442  98.7691 312.8809 0011342 336.6233  23.4433 14.33011506667611
ITAMSAT (IO-26)         
1 22826U 93061D   21355.59666082  .00000042  00000+0  33923-4 0  9996
2 22826  98.8998  17.5910 0008782 190.5647 169.5352 14.30477408472982
RADIO ROSTO (RS-15)     
1 23439U 94085A   21355.57319029 -.00000037  00000+0  15882-3 0  9996
2 23439  64.8140  73.3198 0165793 302.8326  55.6727 11.27570603111436
JAS-2 (FO-29)           
1 24278U 96046B   21355.60044974  .00000004  00000+0  39396-4 0  9995
2 24278  98.5418  38.5551 0350761  24.8085 336.9475 13.53108304251559
NOAA 15                 
1 25338U 98030A   21355.70212198  .00000066  00000+0  45758-4 0  9991
2 25338  98.6642  22.3843 0011421  95.5617 264.6865 14.26077132227935
TECHSAT 1B (GO-32)      
1 25397U 98043D   21355.41659921  .00000030  00000+0  32722-4 0  9995
2 25397  98.7956 300.6478 0000243 243.6033 116.5120 14.23725142218097
ISS (ZARYA)             
1 25544U 98067A   21355.69541667  .00007393  00000+0  14203-3 0  9994
2 25544  51.6424 135.5418 0004363 340.9938 223.2841 15.49035255317656
ORSTED                  
1 25635U 99008B   21355.59841000  .00000333  00000+0  86347-4 0  9990
2 25635  96.4821 256.8605 0139352  29.4322 331.4632 14.48353452204535
PHASE 3D (AO-40)        
1 26609U 00072B   21355.22458694 -.00000216  00000+0  00000+0 0  9996
2 26609   8.5274 298.8802 7976138 319.8072   3.0707  1.25588847 96919
PCSAT (NO-44)           
1 26931U 01043C   21355.60629809  .00000025  00000+0  41117-4 0  9999
2 26931  67.0496 157.4254 0006305 280.4983  79.5407 14.30649363 55967
SAUDISAT 1C (SO-50)     
1 27607U 02058C   21355.59910722  .00000355  00000+0  70495-4 0  9999
2 27607  64.5545 126.0130 0063667 330.8659  28.8896 14.75851280 22127
CUTE-1 (CO-55)          
1 27844U 03031E   21355.59845808  .00000149  00000+0  86695-4 0  9996
2 27844  98.6800   0.9738 0008864 255.7809 104.2385 14.22360687958584
CUBESAT XI-IV (CO-57)   
1 27848U 03031J   21355.50694839  .00000121  00000+0  74761-4 0  9998
2 27848  98.6851   1.4325 0008710 271.4485  88.5695 14.21930684958393
MOZHAYETS 4 (RS-22)     
1 27939U 03042A   21355.47031349  .00000429  00000+0  85181-4 0  9997
2 27939  98.1662 131.5714 0013840  54.1251 306.1258 14.67081834974940
INMARSAT 4-F1           
1 28628U 05009A   21355.56079451 -.00000244  00000+0  00000+0 0  9992
2 28628   3.4857  33.1442 0003055 244.2468 158.3393  1.00270618 61245
NOAA 18                 
1 28654U 05018A   21355.71726084  .00000122  00000+0  89958-4 0  9997
2 28654  98.9730  61.1223 0015166 113.0134 247.2639 14.12668841854977
CUBESAT XI-V            
1 28895U 05043F   21355.35873030  .00000543  00000+0  11253-3 0  9995
2 28895  98.0828 124.8145 0016256 346.1130  13.9623 14.64029589861357
METOP-A                 
1 29499U 06044A   21355.68964934  .00000664  00000+0  97580-4 0  9990
2 29499  98.4753  29.4665 0198590 204.6918 268.1569 14.66860575787462
CARTOSAT-2 (IRS-P7)     
1 29710U 07001B   21355.33693395  .00010506  00000+0  30708-3 0  9996
2 29710  97.8679  86.4604 0164405 319.5064  39.4049 15.23100163809078
FALCONSAT-3             
1 30776U 07006E   21355.21969890  .00019290  00000+0  41659-3 0  9994
2 30776  35.4350 337.7513 0003444 211.0794 148.9732 15.43634258821953
CAPE-1                  
1 31130U 07012P   21355.56898512  .00000449  00000+0  10466-3 0  9994
2 31130  98.2530 292.6070 0096594 124.0030 237.0391 14.56800268779194
CARTOSAT-2A             
1 32783U 08021A   21355.44670020  .00000065  00000+0  16065-4 0  9995
2 32783  97.9833  52.2751 0013213  28.1444 332.0493 14.78661102736713
CUTE-1.7+APD II (CO-65) 
1 32785U 08021C   21355.50927115  .00001124  00000+0  12516-3 0  9997
2 32785  97.6350 327.3504 0014383 101.9306 258.3525 14.88938852740007
COMPASS-1               
1 32787U 08021E   21355.55498812  .00002580  00000+0  24354-3 0  9991
2 32787  97.5457 339.0297 0012884  28.7422 331.4506 14.94531376741475
AAUSAT-II               
1 32788U 08021F   21355.53112657  .00003262  00000+0  29498-3 0  9992
2 32788  97.5196 342.5340 0011904  10.6311 349.5160 14.96050148741823
DELFI-C3 (DO-64)        
1 32789U 08021G   21355.55143395  .00007547  00000+0  46591-3 0  9991
2 32789  97.3585  23.6439 0010497 211.0502 149.0108 15.10128795745050
SEEDS II (CO-66)        
1 32791U 08021J   21355.46586485  .00001640  00000+0  16802-3 0  9995
2 32791  97.5919 333.0157 0014536  65.9255 294.3484 14.91717494740650
YUBILEINY (RS-30)       
1 32953U 08025A   21355.51178807  .00000021  00000+0  80971-4 0  9991
2 32953  82.5032 294.5861 0018695 291.6291  68.2798 12.43106494616229
FENGYUN 3A              
1 32958U 08026A   21355.52789681  .00000035  00000+0  36802-4 0  9995
2 32958  98.4775 320.6897 0008790 170.8564 189.2774 14.18679857703104
PRISM (HITOMI)          
1 33493U 09002B   21355.50584548  .00003195  00000+0  27405-3 0  9996
2 33493  98.2132 327.3727 0015715  29.8942 330.3173 14.98199055702328
STARS (KUKAI)           
1 33498U 09002G   21355.60999985  .00000862  00000+0  12245-3 0  9991
2 33498  98.1891 239.4228 0012060 102.4717 257.7844 14.79523596695138
KKS-1 (KISEKI)          
1 33499U 09002H   21355.61334805  .00000460  00000+0  74975-4 0  9990
2 33499  98.2410 229.4571 0009440 156.2264 203.9382 14.75759356694016
NOAA 19                 
1 33591U 09005A   21355.69887686  .00000073  00000+0  65012-4 0  9996
2 33591  99.1688  20.9164 0013425 330.5253  29.5160 14.12516335663359
SWISSCUBE               
1 35932U 09051B   21355.54617004  .00000433  00000+0  10804-3 0  9995
2 35932  98.5846 201.3205 0006695 229.0351 131.0268 14.56637421650196
BEESAT-1                
1 35933U 09051C   21355.57387079  .00000377  00000+0  95437-4 0  9998
2 35933  98.5797 203.0855 0004746 242.3035 117.7681 14.56682685650275
ITUPSAT1                
1 35935U 09051E   21355.55243108  .00000348  00000+0  90576-4 0  9999
2 35935  98.5899 203.1619 0007036 246.1175 113.9284 14.55807889649999
XIWANG-1 (HOPE-1)       
1 36122U 09072B   21355.49892109 -.00000018  00000+0  65073-4 0  9994
2 36122 100.1585 328.6009 0007880  34.8534 325.3095 13.16364529577392
CARTOSAT-2B             
1 36795U 10035A   21355.41708763  .00000201  00000+0  34613-4 0  9994
2 36795  97.9883  52.4590 0015142  98.1471 262.1473 14.78646249617756
TISAT 1                 
1 36799U 10035E   21355.51134522  .00001928  00000+0  19589-3 0  9996
2 36799  98.1946 193.8775 0011335 325.4056  34.6423 14.92046692621229
FENGYUN 3B              
1 37214U 10059A   21355.49904030  .00000037  00000+0  42413-4 0  9994
2 37214  99.0895 353.2941 0017574 141.9356 218.3063 14.16011771575806
JUGNU                   
1 37839U 11058B   21355.55882293  .00000330  00000+0  34133-4 0  9996
2 37839  19.9594 174.4316 0018925 355.4006  51.1233 14.12738836526958
SRMSAT                  
1 37841U 11058D   21355.10477792  .00000383  00000+0  65093-4 0  9991
2 37841  19.9715 252.9370 0011938 184.0573 319.1292 14.10716681526022
M-CUBED & EXP-1 PRIME   
1 37855U 11061F   21355.56319502  .00006080  00000+0  28871-3 0  9996
2 37855 101.7209  16.3543 0162922 233.6928 124.9148 15.08998852554386
HORYU-2                 
1 38340U 12025D   21355.23519398  .00000813  00000+0  12514-3 0  9991
2 38340  98.2141  65.8904 0012655  80.3140 279.9498 14.76200158505947
METOP-B                 
1 38771U 12049A   21355.69471748  .00000054  00000+0  44454-4 0  9997
2 38771  98.6916  53.1720 0001457 146.4796 323.1168 14.21498424480475
SARAL                   
1 39086U 13009A   21355.57085376  .00000029  00000+0  27129-4 0  9991
2 39086  98.5432 178.8421 0002045  78.8669 281.2745 14.32045579461027
AAUSAT 3                
1 39087U 13009B   21355.46701885  .00000200  00000+0  83445-4 0  9994
2 39087  98.4065 194.3959 0013245  77.5847 282.6823 14.36014810462038
STRAND-1                
1 39090U 13009E   21355.52825398  .00000148  00000+0  66537-4 0  9995
2 39090  98.4113 193.1920 0010216  82.3705 277.8641 14.35218569461874
BRITE-AUSTRIA           
1 39091U 13009F   21355.51103861  .00000066  00000+0  38101-4 0  9994
2 39091  98.4121 192.3261 0011654  88.5502 271.7018 14.35216723461908
UNIBRITE                
1 39092U 13009G   21355.51674435  .00000089  00000+0  45962-4 0  9993
2 39092  98.4152 192.0641 0010534  84.1501 276.0885 14.35087937461867
SOMP                    
1 39134U 13015E   21355.23687567  .00011548  00000+0  47724-3 0  9995
2 39134  64.8643 284.4859 0026445 306.7134  53.1566 15.24032341479661
BEESAT-3                
1 39135U 13015F   21355.51564862  .00008897  00000+0  41051-3 0  9999
2 39135  64.8684 315.9750 0025966 319.3629  40.5560 15.20483589479038
BEESAT-2                
1 39136U 13015G   21355.39948296  .00007654  00000+0  36441-3 0  9990
2 39136  64.8765 323.5577 0011915 254.5278 105.4534 15.19758506478831
NEE-01 PEGASO           
1 39151U 13018B   21355.51334516  .00000835  00000+0  11574-3 0  9992
2 39151  97.9865  96.9738 0018250 110.9509 249.3657 14.80501933467342
CUBEBUG-1 (CAPITAN BETO)
1 39153U 13018D   21355.52357333  .00001015  00000+0  13728-3 0  9991
2 39153  98.0045 100.7902 0018107 106.3194 254.0011 14.81112897467416
